ONEWEB-0382             
1 49308U 21090AF  26046.25301236  .00000074  00000+0  14991-3 0  9993
2 49308  87.9206 298.7739 0001667  65.1725 294.9582 13.20771556213720
ONEWEB-0383             
1 49309U 21090AG  26046.24304592 -.00000008  00000+0 -56839-4 0  9998
2 49309  87.9024 314.0110 0001571  71.7653 288.3647 13.14505051211579
ONEWEB-0384             
1 49310U 21090AH  26046.24493548  .00000056  00000+0  10517-3 0  9993
2 49310  87.9216 298.8175 0001519  58.9159 301.2123 13.20805332213730
ONEWEB-0385             
1 49311U 21090AJ  26046.24511876  .00000020  00000+0  17535-4 0  9998
2 49311  87.9210 298.7801 0001692  70.5753 289.5563 13.20770019213708
ONEWEB-0386             
1 49312U 21090AK  26046.26247444  .00000105  00000+0  22602-3 0  9992
2 49312  87.9209 298.7612 0001558  71.4004 288.7299 13.20772274213721
ONEWEB-0387             
1 49313U 21090AL  26046.24670220  .00000008  00000+0 -11265-4 0  9990
2 49313  87.9200 298.8040 0001930  75.0343 285.1004 13.20771225213729
ONEWEB-0388             
1 49314U 21090AM  26046.26698162  .00000083  00000+0  17452-3 0  9993
2 49314  87.9246 329.2473 0001800  72.0916 288.0413 13.19724957210336
ONEWEB-0389             
1 50469U 21132A   26045.94148052  .00000062  00000+0  12642-3 0  9998
2 50469  87.9113  30.1511 0002083  75.3008 284.8354 13.17648055201986
ONEWEB-0390             
1 50470U 21132B   26045.94317444  .00000104  00000+0  23367-3 0  9996
2 50470  87.9112  30.1510 0002122  90.4917 269.6458 13.17650895201988
ONEWEB-0391             
1 50471U 21132C   26045.94486431  .00000010  00000+0 -63532-5 0  9997
2 50471  87.9110  30.1601 0002626  74.8632 285.2790 13.17648244201985
ONEWEB-0392             
1 50472U 21132D   26045.97522732 -.00000036  00000+0 -12687-3 0  9998
2 50472  87.9117  30.1126 0002166  76.0396 284.0976 13.17647585202021
ONEWEB-0393             
1 50473U 21132E   26045.87244467  .00000042  00000+0  74665-4 0  9994
2 50473  87.9120  30.1560 0002004  79.8163 280.3195 13.17649938202006
ONEWEB-0394             
1 50474U 21132F   26046.24018648  .00000049  00000+0  90917-4 0  9992
2 50474  87.9236 359.6499 0001907  76.0307 284.1037 13.18684799205527
ONEWEB-0395             
1 50475U 21132G   26046.01590693 -.00000461  00000+0 -13363-2 0  9991
2 50475  87.8822  45.3765 0002144  88.9663 271.1711 13.11415525199703
ONEWEB-0396             
1 50476U 21132H   26046.23358716 -.00000002  00000+0 -36551-4 0  9991
2 50476  87.9235 359.6629 0001887  79.5392 280.5952 13.18684491205561
ONEWEB-0397             
1 50477U 21132J   26046.24842392  .00000063  00000+0  12752-3 0  9992
2 50477  87.9235 359.6604 0001788  74.8432 285.2897 13.18684709205548
ONEWEB-0398             
1 50478U 21132K   26045.98370525  .00000569  00000+0  15702-2 0  9995
2 50478  87.8835  45.3610 0002196  94.6566 265.4812 13.11417124199594
