[{"OBJECT_NAME":"ONEWEB-0382","OBJECT_ID":"2021-090AF","EPOCH":"2026-02-15T06:04:20.267904","MEAN_MOTION":13.20771556,"ECCENTRICITY":0.00016674,"INCLINATION":87.9206,"RA_OF_ASC_NODE":298.7739,"ARG_OF_PERICENTER":65.1725,"MEAN_ANOMALY":294.9582,"EPHEMERIS_TYPE":0,"CLASSIFICATION_TYPE":"U","NORAD_CAT_ID":49308,"ELEMENT_SET_NO":999,"REV_AT_EPOCH":21372,"BSTAR":0.00014990965,"MEAN_MOTION_DOT":7.4e-7,"MEAN_MOTION_DDOT":0},{"OBJECT_NAME":"ONEWEB-0383","OBJECT_ID":"2021-090AG","EPOCH":"2026-02-15T05:49:59.167488","MEAN_MOTION":13.14505051,"ECCENTRICITY":0.00015711,"INCLINATION":87.9024,"RA_OF_ASC_NODE":314.011,"ARG_OF_PERICENTER":71.7653,"MEAN_ANOMALY":288.3647,"EPHEMERIS_TYPE":0,"CLASSIFICATION_TYPE":"U","NORAD_CAT_ID":49309,"ELEMENT_SET_NO":999,"REV_AT_EPOCH":21157,"BSTAR":-5.6839471e-5,"MEAN_MOTION_DOT":-8.0e-8,"MEAN_MOTION_DDOT":0},{"OBJECT_NAME":"ONEWEB-0384","OBJECT_ID":"2021-090AH","EPOCH":"2026-02-15T05:52:42.425472","MEAN_MOTION":13.20805332,"ECCENTRICITY":0.00015197,"INCLINATION":87.9216,"RA_OF_ASC_NODE":298.8175,"ARG_OF_PERICENTER":58.9159,"MEAN_ANOMALY":301.2123,"EPHEMERIS_TYPE":0,"CLASSIFICATION_TYPE":"U","NORAD_CAT_ID":49310,"ELEMENT_SET_NO":999,"REV_AT_EPOCH":21373,"BSTAR":0.00010517212,"MEAN_MOTION_DOT":5.6e-7,"MEAN_MOTION_DDOT":0},{"OBJECT_NAME":"ONEWEB-0385","OBJECT_ID":"2021-090AJ","EPOCH":"2026-02-15T05:52:58.260864","MEAN_MOTION":13.20770019,"ECCENTRICITY":0.00016929,"INCLINATION":87.921,"RA_OF_ASC_NODE":298.7801,"ARG_OF_PERICENTER":70.5753,"MEAN_ANOMALY":289.5563,"EPHEMERIS_TYPE":0,"CLASSIFICATION_TYPE":"U","NORAD_CAT_ID":49311,"ELEMENT_SET_NO":999,"REV_AT_EPOCH":21370,"BSTAR":1.7534588e-5,"MEAN_MOTION_DOT":2.0e-7,"MEAN_MOTION_DDOT":0},{"OBJECT_NAME":"ONEWEB-0386","OBJECT_ID":"2021-090AK","EPOCH":"2026-02-15T06:17:57.791616","MEAN_MOTION":13.20772274,"ECCENTRICITY":0.00015583,"INCLINATION":87.9209,"RA_OF_ASC_NODE":298.7612,"ARG_OF_PERICENTER":71.4004,"MEAN_ANOMALY":288.7299,"EPHEMERIS_TYPE":0,"CLASSIFICATION_TYPE":"U","NORAD_CAT_ID":49312,"ELEMENT_SET_NO":999,"REV_AT_EPOCH":21372,"BSTAR":0.0002260227,"MEAN_MOTION_DOT":1.05e-6,"MEAN_MOTION_DDOT":0},{"OBJECT_NAME":"ONEWEB-0387","OBJECT_ID":"2021-090AL","EPOCH":"2026-02-15T05:55:15.070080","MEAN_MOTION":13.20771225,"ECCENTRICITY":0.00019302,"INCLINATION":87.92,"RA_OF_ASC_NODE":298.804,"ARG_OF_PERICENTER":75.0343,"MEAN_ANOMALY":285.1004,"EPHEMERIS_TYPE":0,"CLASSIFICATION_TYPE":"U","NORAD_CAT_ID":49313,"ELEMENT_SET_NO":999,"REV_AT_EPOCH":21372,"BSTAR":-1.1264596e-5,"MEAN_MOTION_DOT":8.0e-8,"MEAN_MOTION_DDOT":0},{"OBJECT_NAME":"ONEWEB-0388","OBJECT_ID":"2021-090AM","EPOCH":"2026-02-15T06:24:27.211968","MEAN_MOTION":13.19724957,"ECCENTRICITY":0.00018004,"INCLINATION":87.9246,"RA_OF_ASC_NODE":329.2473,"ARG_OF_PERICENTER":72.0916,"MEAN_ANOMALY":288.0413,"EPHEMERIS_TYPE":0,"CLASSIFICATION_TYPE":"U","NORAD_CAT_ID":49314,"ELEMENT_SET_NO":999,"REV_AT_EPOCH":21033,"BSTAR":0.00017451888,"MEAN_MOTION_DOT":8.3e-7,"MEAN_MOTION_DDOT":0},{"OBJECT_NAME":"ONEWEB-0389","OBJECT_ID":"2021-132A","EPOCH":"2026-02-14T22:35:43.916928","MEAN_MOTION":13.17648055,"ECCENTRICITY":0.00020834,"INCLINATION":87.9113,"RA_OF_ASC_NODE":30.1511,"ARG_OF_PERICENTER":75.3008,"MEAN_ANOMALY":284.8354,"EPHEMERIS_TYPE":0,"CLASSIFICATION_TYPE":"U","NORAD_CAT_ID":50469,"ELEMENT_SET_NO":999,"REV_AT_EPOCH":20198,"BSTAR":0.00012641539,"MEAN_MOTION_DOT":6.2e-7,"MEAN_MOTION_DDOT":0},{"OBJECT_NAME":"ONEWEB-0390","OBJECT_ID":"2021-132B","EPOCH":"2026-02-14T22:38:10.271616","MEAN_MOTION":13.17650895,"ECCENTRICITY":0.00021221,"INCLINATION":87.9112,"RA_OF_ASC_NODE":30.151,"ARG_OF_PERICENTER":90.4917,"MEAN_ANOMALY":269.6458,"EPHEMERIS_TYPE":0,"CLASSIFICATION_TYPE":"U","NORAD_CAT_ID":50470,"ELEMENT_SET_NO":999,"REV_AT_EPOCH":20198,"BSTAR":0.00023367462,"MEAN_MOTION_DOT":1.04e-6,"MEAN_MOTION_DDOT":0},{"OBJECT_NAME":"ONEWEB-0391","OBJECT_ID":"2021-132C","EPOCH":"2026-02-14T22:40:36.276384","MEAN_MOTION":13.17648244,"ECCENTRICITY":0.00026264,"INCLINATION":87.911,"RA_OF_ASC_NODE":30.1601,"ARG_OF_PERICENTER":74.8632,"MEAN_ANOMALY":285.279,"EPHEMERIS_TYPE":0,"CLASSIFICATION_TYPE":"U","NORAD_CAT_ID":50471,"ELEMENT_SET_NO":999,"REV_AT_EPOCH":20198,"BSTAR":-6.353185e-6,"MEAN_MOTION_DOT":1.0e-7,"MEAN_MOTION_DDOT":0},{"OBJECT_NAME":"ONEWEB-0392","OBJECT_ID":"2021-132D","EPOCH":"2026-02-14T23:24:19.640448","MEAN_MOTION":13.17647585,"ECCENTRICITY":0.0002166,"INCLINATION":87.9117,"RA_OF_ASC_NODE":30.1126,"ARG_OF_PERICENTER":76.0396,"MEAN_ANOMALY":284.0976,"EPHEMERIS_TYPE":0,"CLASSIFICATION_TYPE":"U","NORAD_CAT_ID":50472,"ELEMENT_SET_NO":999,"REV_AT_EPOCH":20202,"BSTAR":-0.00012687,"MEAN_MOTION_DOT":-3.6e-7,"MEAN_MOTION_DDOT":0},{"OBJECT_NAME":"ONEWEB-0393","OBJECT_ID":"2021-132E","EPOCH":"2026-02-14T20:56:19.219488","MEAN_MOTION":13.17649938,"ECCENTRICITY":0.00020047,"INCLINATION":87.912,"RA_OF_ASC_NODE":30.156,"ARG_OF_PERICENTER":79.8163,"MEAN_ANOMALY":280.3195,"EPHEMERIS_TYPE":0,"CLASSIFICATION_TYPE":"U","NORAD_CAT_ID":50473,"ELEMENT_SET_NO":999,"REV_AT_EPOCH":20200,"BSTAR":7.466527e-5,"MEAN_MOTION_DOT":4.2e-7,"MEAN_MOTION_DDOT":0},{"OBJECT_NAME":"ONEWEB-0394","OBJECT_ID":"2021-132F","EPOCH":"2026-02-15T05:45:52.111872","MEAN_MOTION":13.18684799,"ECCENTRICITY":0.0001907,"INCLINATION":87.9236,"RA_OF_ASC_NODE":359.6499,"ARG_OF_PERICENTER":76.0307,"MEAN_ANOMALY":284.1037,"EPHEMERIS_TYPE":0,"CLASSIFICATION_TYPE":"U","NORAD_CAT_ID":50474,"ELEMENT_SET_NO":999,"REV_AT_EPOCH":20552,"BSTAR":9.0916622e-5,"MEAN_MOTION_DOT":4.9e-7,"MEAN_MOTION_DDOT":0},{"OBJECT_NAME":"ONEWEB-0395","OBJECT_ID":"2021-132G","EPOCH":"2026-02-15T00:22:54.358752","MEAN_MOTION":13.11415525,"ECCENTRICITY":0.0002144,"INCLINATION":87.8822,"RA_OF_ASC_NODE":45.3765,"ARG_OF_PERICENTER":88.9663,"MEAN_ANOMALY":271.1711,"EPHEMERIS_TYPE":0,"CLASSIFICATION_TYPE":"U","NORAD_CAT_ID":50475,"ELEMENT_SET_NO":999,"REV_AT_EPOCH":19970,"BSTAR":-0.0013362594,"MEAN_MOTION_DOT":-4.61e-6,"MEAN_MOTION_DDOT":0},{"OBJECT_NAME":"ONEWEB-0396","OBJECT_ID":"2021-132H","EPOCH":"2026-02-15T05:36:21.930624","MEAN_MOTION":13.18684491,"ECCENTRICITY":0.00018877,"INCLINATION":87.9235,"RA_OF_ASC_NODE":359.6629,"ARG_OF_PERICENTER":79.5392,"MEAN_ANOMALY":280.5952,"EPHEMERIS_TYPE":0,"CLASSIFICATION_TYPE":"U","NORAD_CAT_ID":50476,"ELEMENT_SET_NO":999,"REV_AT_EPOCH":20556,"BSTAR":-3.6551015e-5,"MEAN_MOTION_DOT":-2.0e-8,"MEAN_MOTION_DDOT":0},{"OBJECT_NAME":"ONEWEB-0397","OBJECT_ID":"2021-132J","EPOCH":"2026-02-15T05:57:43.826688","MEAN_MOTION":13.18684709,"ECCENTRICITY":0.00017881,"INCLINATION":87.9235,"RA_OF_ASC_NODE":359.6604,"ARG_OF_PERICENTER":74.8432,"MEAN_ANOMALY":285.2897,"EPHEMERIS_TYPE":0,"CLASSIFICATION_TYPE":"U","NORAD_CAT_ID":50477,"ELEMENT_SET_NO":999,"REV_AT_EPOCH":20554,"BSTAR":0.00012751894,"MEAN_MOTION_DOT":6.3e-7,"MEAN_MOTION_DDOT":0},{"OBJECT_NAME":"ONEWEB-0398","OBJECT_ID":"2021-132K","EPOCH":"2026-02-14T23:36:32.133600","MEAN_MOTION":13.11417124,"ECCENTRICITY":0.0002196,"INCLINATION":87.8835,"RA_OF_ASC_NODE":45.361,"ARG_OF_PERICENTER":94.6566,"MEAN_ANOMALY":265.4812,"EPHEMERIS_TYPE":0,"CLASSIFICATION_TYPE":"U","NORAD_CAT_ID":50478,"ELEMENT_SET_NO":999,"REV_AT_EPOCH":19959,"BSTAR":0.0015702,"MEAN_MOTION_DOT":5.69e-6,"MEAN_MOTION_DDOT":0}]
